{
  "type": "FeatureCollection",
  "features": [
    {
      "type": "Feature",
      "properties": {
        "norad_id": 31487,
        "name": "FENGYUN 1C DEB",
        "group": "fengyun-1c-debris",
        "lat": 34.28637406159155,
        "lon": 166.5468966699513,
        "alt_km": 946.976416959893,
        "timestamp": "2025-12-27T13:34:49.577874+00:00",
        "meta_object_name": "FENGYUN 1C DEB",
        "meta_object_id": "1999-025BWB",
        "meta_epoch": "2025-12-26T18:35:52.920384",
        "meta_mean_motion": 13.97795775,
        "meta_eccentricity": 0.01193896,
        "meta_inclination": 102.4139,
        "meta_ra_of_asc_node": 174.1183,
        "meta_arg_of_pericenter": 273.1497,
        "meta_mean_anomaly": 102.9015,
        "meta_ephemeris_type": 0,
        "meta_classification_type": "U",
        "meta_norad_cat_id": 31487,
        "meta_element_set_no": 999,
        "meta_rev_at_epoch": 94608,
        "meta_bstar": 0.0017913664,
        "meta_mean_motion_dot": 2.62e-05,
        "meta_mean_motion_ddot": 0,
        "tle_line1": "1 31487U 99025BWB 25360.77491806  .00002620  00000+0  17914-2 0  9999",
        "tle_line2": "2 31487 102.4139 174.1183 0119389 273.1497 102.9015 13.97795775946089"
      },
      "geometry": {
        "type": "Point",
        "coordinates": [
          166.5468966699513,
          34.28637406159155
        ]
      }
    },
    {
      "type": "Feature",
      "properties": {
        "norad_id": 31491,
        "name": "FENGYUN 1C DEB",
        "group": "fengyun-1c-debris",
        "lat": -11.445090215967012,
        "lon": 88.9597345665361,
        "alt_km": 808.7885372721876,
        "timestamp": "2025-12-27T13:34:49.577884+00:00",
        "meta_object_name": "FENGYUN 1C DEB",
        "meta_object_id": "1999-025BWE",
        "meta_epoch": "2025-12-25T23:24:11.230272",
        "meta_mean_motion": 14.17348825,
        "meta_eccentricity": 0.0050191,
        "meta_inclination": 99.3079,
        "meta_ra_of_asc_node": 269.1977,
        "meta_arg_of_pericenter": 230.8309,
        "meta_mean_anomaly": 128.84,
        "meta_ephemeris_type": 0,
        "meta_classification_type": "U",
        "meta_norad_cat_id": 31491,
        "meta_element_set_no": 999,
        "meta_rev_at_epoch": 63915,
        "meta_bstar": 0.0017221,
        "meta_mean_motion_dot": 3.48e-05,
        "meta_mean_motion_ddot": 0,
        "tle_line1": "1 31491U 99025BWE 25359.97512998  .00003480  00000+0  17221-2 0  9996",
        "tle_line2": "2 31491  99.3079 269.1977 0050191 230.8309 128.8400 14.17348825639159"
      },
      "geometry": {
        "type": "Point",
        "coordinates": [
          88.9597345665361,
          -11.445090215967012
        ]
      }
    },
    {
      "type": "Feature",
      "properties": {
        "norad_id": 31492,
        "name": "FENGYUN 1C DEB",
        "group": "fengyun-1c-debris",
        "lat": 65.79033296690199,
        "lon": 148.57796959908075,
        "alt_km": 661.8260508589774,
        "timestamp": "2025-12-27T13:34:49.577894+00:00",
        "meta_object_name": "FENGYUN 1C DEB",
        "meta_object_id": "1999-025BWF",
        "meta_epoch": "2025-12-22T22:16:59.719872",
        "meta_mean_motion": 14.71117312,
        "meta_eccentricity": 0.00645708,
        "meta_inclination": 98.856,
        "meta_ra_of_asc_node": 163.8283,
        "meta_arg_of_pericenter": 336.971,
        "meta_mean_anomaly": 22.8602,
        "meta_ephemeris_type": 0,
        "meta_classification_type": "U",
        "meta_norad_cat_id": 31492,
        "meta_element_set_no": 999,
        "meta_rev_at_epoch": 96656,
        "meta_bstar": 0.0033267446,
        "meta_mean_motion_dot": 0.00021138,
        "meta_mean_motion_ddot": 0,
        "tle_line1": "1 31492U 99025BWF 25356.92846898  .00021138  00000+0  33267-2 0  9996",
        "tle_line2": "2 31492  98.8560 163.8283 0064570 336.9710  22.8602 14.71117312966569"
      },
      "geometry": {
        "type": "Point",
        "coordinates": [
          148.57796959908075,
          65.79033296690199
        ]
      }
    },
    {
      "type": "Feature",
      "properties": {
        "norad_id": 31493,
        "name": "FENGYUN 1C DEB",
        "group": "fengyun-1c-debris",
        "lat": -3.08878141408981,
        "lon": 128.3024298167691,
        "alt_km": 862.0965888681694,
        "timestamp": "2025-12-27T13:34:49.577903+00:00",
        "meta_object_name": "FENGYUN 1C DEB",
        "meta_object_id": "1999-025BWG",
        "meta_epoch": "2025-12-27T02:22:15.048192",
        "meta_mean_motion": 13.92999476,
        "meta_eccentricity": 0.01174154,
        "meta_inclination": 100.1376,
        "meta_ra_of_asc_node": 308.3446,
        "meta_arg_of_pericenter": 137.5196,
        "meta_mean_anomaly": 223.5121,
        "meta_ephemeris_type": 0,
        "meta_classification_type": "U",
        "meta_norad_cat_id": 31493,
        "meta_element_set_no": 999,
        "meta_rev_at_epoch": 60066,
        "meta_bstar": 0.00080065101,
        "meta_mean_motion_dot": 1.05e-05,
        "meta_mean_motion_ddot": 0,
        "tle_line1": "1 31493U 99025BWG 25361.09878528  .00001050  00000+0  80065-3 0  9996",
        "tle_line2": "2 31493 100.1376 308.3446 0117415 137.5196 223.5121 13.92999476600662"
      },
      "geometry": {
        "type": "Point",
        "coordinates": [
          128.3024298167691,
          -3.08878141408981
        ]
      }
    },
    {
      "type": "Feature",
      "properties": {
        "norad_id": 31495,
        "name": "FENGYUN 1C DEB",
        "group": "fengyun-1c-debris",
        "lat": 37.3552507819679,
        "lon": 62.46679810090652,
        "alt_km": 773.19131533971,
        "timestamp": "2025-12-27T13:34:49.577913+00:00",
        "meta_object_name": "FENGYUN 1C DEB",
        "meta_object_id": "1999-025BWJ",
        "meta_epoch": "2025-12-20T09:32:47.149152",
        "meta_mean_motion": 14.29252624,
        "meta_eccentricity": 0.00255899,
        "meta_inclination": 99.12,
        "meta_ra_of_asc_node": 227.9275,
        "meta_arg_of_pericenter": 154.7696,
        "meta_mean_anomaly": 205.474,
        "meta_ephemeris_type": 0,
        "meta_classification_type": "U",
        "meta_norad_cat_id": 31495,
        "meta_element_set_no": 999,
        "meta_rev_at_epoch": 63500,
        "meta_bstar": 0.00086082116,
        "meta_mean_motion_dot": 2.149e-05,
        "meta_mean_motion_ddot": 0,
        "tle_line1": "1 31495U 99025BWJ 25354.39776793  .00002149  00000+0  86082-3 0  9999",
        "tle_line2": "2 31495  99.1200 227.9275 0025589 154.7696 205.4740 14.29252624635009"
      },
      "geometry": {
        "type": "Point",
        "coordinates": [
          62.46679810090652,
          37.3552507819679
        ]
      }
    },
    {
      "type": "Feature",
      "properties": {
        "norad_id": 31497,
        "name": "FENGYUN 1C DEB",
        "group": "fengyun-1c-debris",
        "lat": 69.87056533560148,
        "lon": -171.5316799208348,
        "alt_km": 871.7020555452855,
        "timestamp": "2025-12-27T13:34:49.577923+00:00",
        "meta_object_name": "FENGYUN 1C DEB",
        "meta_object_id": "1999-025BWL",
        "meta_epoch": "2025-12-20T04:29:02.353920",
        "meta_mean_motion": 14.39239205,
        "meta_eccentricity": 0.01673435,
        "meta_inclination": 98.371,
        "meta_ra_of_asc_node": 337.5747,
        "meta_arg_of_pericenter": 320.7302,
        "meta_mean_anomaly": 96.6636,
        "meta_ephemeris_type": 0,
        "meta_classification_type": "U",
        "meta_norad_cat_id": 31497,
        "meta_element_set_no": 999,
        "meta_rev_at_epoch": 97662,
        "meta_bstar": 0.00018663983,
        "meta_mean_motion_dot": 6.31e-06,
        "meta_mean_motion_ddot": 0,
        "tle_line1": "1 31497U 99025BWL 25354.18683280  .00000631  00000+0  18664-3 0  9991",
        "tle_line2": "2 31497  98.3710 337.5747 0167343 320.7302  96.6636 14.39239205976625"
      },
      "geometry": {
        "type": "Point",
        "coordinates": [
          -171.5316799208348,
          69.87056533560148
        ]
      }
    },
    {
      "type": "Feature",
      "properties": {
        "norad_id": 31498,
        "name": "FENGYUN 1C DEB",
        "group": "fengyun-1c-debris",
        "lat": -48.56598553222953,
        "lon": -18.91392885453506,
        "alt_km": 1125.3830407452524,
        "timestamp": "2025-12-27T13:34:49.577933+00:00",
        "meta_object_name": "FENGYUN 1C DEB",
        "meta_object_id": "1999-025BWM",
        "meta_epoch": "2025-12-20T21:23:31.452864",
        "meta_mean_motion": 13.77022887,
        "meta_eccentricity": 0.0219158,
        "meta_inclination": 98.4859,
        "meta_ra_of_asc_node": 325.3849,
        "meta_arg_of_pericenter": 122.8448,
        "meta_mean_anomaly": 239.4012,
        "meta_ephemeris_type": 0,
        "meta_classification_type": "U",
        "meta_norad_cat_id": 31498,
        "meta_element_set_no": 999,
        "meta_rev_at_epoch": 92846,
        "meta_bstar": 0.0012225,
        "meta_mean_motion_dot": 1.406e-05,
        "meta_mean_motion_ddot": 0,
        "tle_line1": "1 31498U 99025BWM 25354.89133626  .00001406  00000+0  12225-2 0  9991",
        "tle_line2": "2 31498  98.4859 325.3849 0219158 122.8448 239.4012 13.77022887928464"
      },
      "geometry": {
        "type": "Point",
        "coordinates": [
          -18.91392885453506,
          -48.56598553222953
        ]
      }
    }
  ]
}